[{"OBJECT_NAME":"STARLINK-3733","OBJECT_ID":"2022-029BB","EPOCH":"2026-03-09T09:18:51.061536","MEAN_MOTION":15.08834872,"ECCENTRICITY":0.00012691,"INCLINATION":53.217,"RA_OF_ASC_NODE":70.4718,"ARG_OF_PERICENTER":88.4998,"MEAN_ANOMALY":271.6139,"EPHEMERIS_TYPE":0,"CLASSIFICATION_TYPE":"U","NORAD_CAT_ID":52137,"ELEMENT_SET_NO":999,"REV_AT_EPOCH":22089,"BSTAR":-7.869124e-6,"MEAN_MOTION_DOT":-4.13e-6,"MEAN_MOTION_DDOT":0},{"OBJECT_NAME":"CZ-11 R\/B","OBJECT_ID":"2018-008G","EPOCH":"2026-03-09T21:32:14.586720","MEAN_MOTION":14.3224485,"ECCENTRICITY":0.03634479,"INCLINATION":98.2374,"RA_OF_ASC_NODE":58.5812,"ARG_OF_PERICENTER":26.4919,"MEAN_ANOMALY":335.4347,"EPHEMERIS_TYPE":0,"CLASSIFICATION_TYPE":"U","NORAD_CAT_ID":43161,"ELEMENT_SET_NO":999,"REV_AT_EPOCH":42445,"BSTAR":0.00036976397,"MEAN_MOTION_DOT":2.03e-5,"MEAN_MOTION_DDOT":0}]
